P/2011 UA134 (Spacewatch-PANSTARRS),e,10.4405,40.4005,32.4199,5.610398,0.0741675,0.63009764,330.4952,01/16.0/2024,2000,g 17.5,4.0
# From MPEC 2023-UR6
P/2011 V1 (Boattini),e,7.3843,46.4823,269.6796,3.855232,0.1302052,0.54871699,252.1378,01/16.0/2024,2000,g 15.5,4.0
# From MPC 82718
P/2011 W1 (PANSTARRS),e,3.7173,161.8292,282.8523,4.670538,0.0976458,0.28851230,68.9757,01/16.0/2024,2000,g 11.5,4.0
# From MPC 79342
P/2011 Y2 (Boattini),e,6.3850,309.3378,131.9888,6.234361,0.0633164,0.71096094,274.1918,01/16.0/2024,2000,g 15.0,4.0
# From MPEC 2022-K19
P/2012 B1 (PANSTARRS),e,7.6096,36.2162,162.1589,6.534522,0.0590043,0.40951853,227.3079,01/16.0/2024,2000,g  9.0,4.0
# From MPC 78590
P/2012 C3 (PANSTARRS),e,9.0920,135.3677,344.9542,9.748681,0.0323806,0.63011148,359.9758,10/06.0/2011,2000,g 13.0,4.0
# From MPC 84931
P/2012 F2 (PANSTARRS),e,14.6987,226.9591,33.2587,6.341352,0.0617208,0.54027381,243.2860,01/16.0/2024,2000,g 12.0,4.0
# From MPEC 2022-ED3
P/2012 G1 (PANSTARRS),e,12.1688,283.2562,266.0809,4.164418,0.1159772,0.32904447,139.5987,01/16.0/2024,2000,g 15.0,4.0
# From MPC 80898
P/2012 K3 (Gibbs),e,13.1856,125.8171,172.2139,3.630195,0.1424981,0.42192792,230.0446,01/16.0/2024,2000,g 15.0,4.0
# From MPC 88326
P/2012 NJ (La Sagra),e,84.4746,315.6332,338.4082,8.467690,0.0399997,0.84644566,169.2786,01/16.0/2024,2000,g 14.5,4.0
# From MPC 81470
P/2012 O1 (McNaught),e,7.4277,91.9520,238.3032,3.542336,0.1478323,0.59384957,263.1711,01/16.0/2024,2000,g 17.5,4.0
# From MPC 80899
P/2012 O2 (McNaught),e,24.4625,120.6776,183.4601,3.627720,0.1426440,0.53144620,244.9577,01/16.0/2024,2000,g 17.0,4.0
# From MPC 82320
P/2012 T2 (PANSTARRS),e,12.5703,73.8813,310.8986,5.723086,0.0719878,0.16250404,280.9409,01/16.0/2024,2000,g 10.0,4.0
# From MPC 80900
P/2012 T3 (PANSTARRS),e,9.5571,114.3562,195.5224,6.153158,0.0645739,0.61605909,275.9510,01/16.0/2024,2000,g 15.0,4.0
# From MPC 82720
P/2012 U2 (PANSTARRS),e,10.7628,185.3287,228.3171,7.128217,0.0517884,0.50054194,210.9188,01/16.0/2024,2000,g 12.5,4.0
# From MPC 84024
P/2012 US27 (Siding Spring),e,39.3665,49.2294,0.8454,5.162685,0.0840215,0.64842815,336.5432,01/16.0/2024,2000,g 13.5,4.0
# From MPC 82721
P/2012 WA34 (Lemmon-PANSTARRS),e,6.0789,93.7403,356.4942,4.677791,0.0974188,0.34341487,18.6034,01/16.0/2024,2000,g 13.5,4.0
# From MPC 82721
P/2013 AL76 (Catalina),e,144.8808,146.0279,27.0607,6.500668,0.0594658,0.68595789,241.7257,01/16.0/2024,2000,g 16.0,4.0
# From MPC 91612
P/2013 G1 (Kowalski),e,5.4569,221.3114,51.4950,6.902182,0.0543531,0.51027012,200.8756,01/16.0/2024,2000,g 11.0,4.0
# From MPC 84025
P/2013 G4 (PANSTARRS),e,5.9175,339.5956,214.5898,4.435313,0.1055158,0.40904142,60.7739,01/16.0/2024,2000,g 15.0,4.0
# From MPC 91613
P/2013 J2 (McNaught),e,15.5080,289.3407,37.8703,6.224957,0.0634599,0.65665835,240.5250,01/16.0/2024,2000,g 13.0,4.0
# From MPC 86229
P/2013 N3 (PANSTARRS),e,2.1704,17.5367,323.9491,7.399600,0.0489657,0.59219264,177.2303,01/16.0/2024,2000,g 13.0,4.0
# From MPC 85834
P/2013 N5 (PANSTARRS),e,23.4472,187.1727,176.9528,6.797267,0.0556164,0.73223243,213.6702,01/16.0/2024,2000,g 17.0,4.0
# From MPC 85834
P/2013 P1 (PANSTARRS),e,18.7070,160.6376,138.2351,8.588083,0.0391615,0.60346130,155.8015,01/16.0/2024,2000,g 12.0,4.0
# From MPEC 2022-V95
P/2013 R3 (Catalina-PANSTARRS),e,0.8650,342.0421,11.2936,3.030881,0.1867887,0.27555049,347.9408,01/16.0/2024,2000,g 14.0,4.0
# From unp
P/2013 R3-A (Catalina-PANSTARRS),e,0.8642,341.9970,11.3723,3.030639,0.1868111,0.27548184,348.0091,01/16.0/2024,2000,g  9.0,4.0
# From MPEC 2015-M77
P/2013 R3-B (Catalina-PANSTARRS),e,0.8654,342.0529,11.3073,3.030856,0.1867911,0.27552663,347.9362,01/16.0/2024,2000,g  9.0,4.0
# From MPC 85835
P/2013 T1 (PANSTARRS),e,24.2892,10.1061,346.1705,5.855226,0.0695646,0.62406980,265.0269,01/16.0/2024,2000,g 16.5,4.0
# From MPC 86643
P/2013 T2 (Schwartz),e,9.4524,0.8207,345.5810,3.492669,0.1509969,0.50064582,227.5643,01/16.0/2024,2000,g 16.0,4.0
# From MPC 91613
P/2013 W1 (PANSTARRS),e,4.6980,117.8296,1.2223,3.486319,0.1514096,0.59335642,185.0890,01/16.0/2024,2000,g 17.5,4.0
# From MPC101095
P/2013 YG46 (Spacewatch),e,7.8578,48.8445,242.6986,3.279950,0.1659217,0.45567535,62.1031,01/16.0/2024,2000,g 10.0,4.0
# From MPC 89728
P/2014 A2 (Hill),e,24.5563,106.6486,356.1477,5.925366,0.0683331,0.64627089,256.1704,01/16.0/2024,2000,g 15.0,4.0
# From MPC 92981
P/2014 A3 (PANSTARRS),e,13.7165,230.0763,214.1343,4.607283,0.0996636,0.24639585,26.7161,01/16.0/2024,2000,g 12.0,4.0
# From MPC102095
P/2014 C1 (TOTAS),e,2.6919,167.8827,24.0106,3.028987,0.1869640,0.45188452,323.9361,01/16.0/2024,2000,g 15.5,4.0
# From MPEC 2022-WD2
C/2014 F3 (Sheppard-Trujillo),e,6.5223,326.0561,4.9746,14.44766,0.0179477,0.60406331,17.2681,01/16.0/2024,2000,g  6.0,4.0
# From MPC 98560
P/2014 L2 (NEOWISE),e,5.1966,149.3588,182.7152,6.307723,0.0622150,0.64717062,215.6194,01/16.0/2024,2000,g 12.0,4.0
# From MPC 90769
P/2014 L3 (Hill),e,6.2627,115.5216,178.6933,8.181768,0.0421147,0.77181568,146.9720,01/16.0/2024,2000,g 16.0,4.0
# From MPC 91614
P/2014 M4 (PANSTARRS),e,3.3449,263.2080,148.0668,5.865542,0.0693812,0.59606676,229.0078,01/16.0/2024,2000,g 15.0,4.0
# From MPEC 2022-K19
P/2014 MG4 (Spacewatch-PANSTARRS),e,9.3646,311.7048,298.9702,5.014197,0.0877813,0.25875839,339.3669,01/16.0/2024,2000,g  9.5,4.0
# From MPC 98560
P/2014 O3 (PANSTARRS),e,7.7910,87.6305,204.7871,7.582631,0.0472035,0.38326593,168.2924,01/16.0/2024,2000,g 10.5,4.0
# From MPEC 2024-A43
C/2014 OG392 (PANSTARRS),e,9.0328,145.8187,254.7754,12.25966,0.0229608,0.18641351,17.3770,01/16.0/2024,2000,g  6.0,4.0
# From MPC 91616
P/2014 U4 (PANSTARRS),e,6.4268,11.9236,347.8489,3.510484,0.1498489,0.46443457,159.8094,01/16.0/2024,2000,g 18.0,4.0
# From MPEC 2024-A43
C/2014 UN271 (Bernardinelli-Bernstein),h,01/18.6638/2031,95.4347,189.9123,326.1424,1.002856,10.954706,2000,2.5,3.2
# From MPC 95211
P/2014 V1 (PANSTARRS),e,22.5156,166.2113,177.6615,5.479618,0.0768385,0.53400873,251.5940,01/16.0/2024,2000,g 14.0,4.0
# From MPC105542
P/2014 W4 (PANSTARRS),e,15.2867,33.3430,67.6308,6.583730,0.0583440,0.35433150,171.2424,01/16.0/2024,2000,g 11.0,4.0
# From MPC 94281
P/2014 X1 (Elenin),e,26.0529,61.5556,33.8950,6.201810,0.0638155,0.71035295,210.5412,01/16.0/2024,2000,g 15.0,4.0
# From MPC 92275
P/2015 A3 (PANSTARRS),e,172.5476,277.4205,249.5827,7.817650,0.0450910,0.85031133,146.6686,01/16.0/2024,2000,g 20.0,4.0
# From MPC 99270
P/2015 B1 (PANSTARRS),e,18.0685,352.8835,188.7759,9.482766,0.0337522,0.36632168,103.0590,01/16.0/2024,2000,g  8.5,4.0
# From MPC109141
P/2015 B4 (Lemmon-PANSTARRS),e,1.7660,266.1053,227.1416,8.509793,0.0397032,0.56150421,129.7347,01/16.0/2024,2000,g 11.0,4.0
# From MPC101096
P/2015 C1 (TOTAS-Gibbs),e,13.9422,348.7865,178.0181,6.566556,0.0585730,0.56280266,186.8165,01/16.0/2024,2000,g 12.5,4.0
# From MPC109141
P/2015 D5 (Kowalski),e,20.5489,74.0850,39.6004,8.947501,0.0368257,0.49097504,131.5918,01/16.0/2024,2000,g  9.0,4.0
# From MPC 96866
P/2015 D6 (Lemmon-PANSTARRS),e,20.2205,45.7518,124.9587,7.129757,0.0517716,0.36208283,161.8890,01/16.0/2024,2000,g 10.5,4.0
# From MPEC 2023-XP6
P/2015 HG16 (PANSTARRS),e,19.0046,57.0644,46.7391,4.798381,0.0937696,0.34937266,334.2789,01/16.0/2024,2000,g 12.5,4.0
# From MPC 95213
P/2015 K5 (PANSTARRS),e,39.9364,134.2645,106.2244,6.727596,0.0564825,0.55146347,178.2218,01/16.0/2024,2000,g 13.5,4.0
# From MPC107684
P/2015 M2 (PANSTARRS),e,3.9682,86.7023,225.9519,7.250175,0.0504872,0.17864925,153.9847,01/16.0/2024,2000,g  8.5,4.0
# From MPC 99819
P/2015 P4 (PANSTARRS),e,8.7200,104.7169,280.6772,6.046836,0.0662845,0.58569504,193.0404,01/16.0/2024,2000,g 14.0,4.0
# From MPEC 2022-K19
P/2015 PD229 (Cameron-ISON),e,2.0230,342.7297,352.7187,7.199775,0.0510183,0.32649313,156.8842,01/16.0/2024,2000,g 11.5,2.0
# From MPC 96867
P/2015 Q2 (Pimentel),e,146.5600,228.5617,244.6800,7.352290,0.0494391,0.75123032,150.7816,01/16.0/2024,2000,g 15.5,4.0
# From MPC 98562
P/2015 R1 (PANSTARRS),e,22.6888,48.3743,300.5520,5.881812,0.0690935,0.63378020,215.6033,01/16.0/2024,2000,g 14.0,4.0
# From MPC 95734
P/2015 R2 (PANSTARRS),e,15.4813,168.6125,149.8592,4.483471,0.1038204,0.45244910,325.2535,01/16.0/2024,2000,g 14.5,4.0
# From MPC102953
P/2015 TO19 (Lemmon-PANSTARRS),e,6.5038,321.6624,89.2431,4.549230,0.1015774,0.35967901,291.2141,01/16.0/2024,2000,g 14.0,4.0
# From MPC110080
P/2015 TP200 (LINEAR),e,8.7825,6.9809,82.4710,7.262388,0.0503599,0.53698837,132.5836,01/16.0/2024,2000,g 11.0,4.0
# From MPC101098
P/2015 W2 (Catalina),e,11.6144,294.1469,117.5883,7.291085,0.0500629,0.63558669,151.3465,01/16.0/2024,2000,g 13.0,4.0
# From MPEC 2023-J29
P/2015 X3 (PANSTARRS),e,24.4198,77.2561,306.9068,5.001280,0.0881216,0.44011895,270.8944,01/16.0/2024,2000,g 15.0,4.0
# From MPC115881
P/2015 X6 (PANSTARRS),e,4.5654,106.9382,329.8250,2.751354,0.2159655,0.17354479,255.9389,01/16.0/2024,2000,g 16.0,4.0
# From MPC100282
P/2016 A2 (Christensen),e,26.4053,291.5953,141.3251,4.753538,0.0950996,0.27124014,298.5723,01/16.0/2024,2000,g 11.5,4.0
# From MPEC 2022-OB6
P/2016 A3 (PANSTARRS),e,8.5139,187.1866,340.8327,7.873476,0.0446123,0.38630014,109.6038,01/16.0/2024,2000,g 10.0,4.0
# From MPC102098
P/2016 A7 (PANSTARRS),e,16.6087,221.4619,352.4812,5.036372,0.0872022,0.56558309,252.2442,01/16.0/2024,2000,g 16.0,4.0
# From MPEC 2021-P47
P/2016 G1 (PANSTARRS),e,10.9710,204.0167,111.1256,2.583744,0.2373176,0.21029021,244.6194,01/16.0/2024,2000,g 14.0,4.0
# From MPEC 2017-D91
P/2016 J1-A (PANSTARRS),e,14.3206,199.9151,47.5612,3.180255,0.1737846,0.22701725,120.3341,01/16.0/2024,2000,g 16.5,4.0
# From MPEC 2017-A77
P/2016 J1-B (PANSTARRS),e,14.3234,199.9204,47.4530,3.179896,0.1738140,0.22686258,120.4917,01/16.0/2024,2000,g 17.0,4.0
# From MPC102099
P/2016 P1 (PANSTARRS),e,24.3839,319.5022,270.5813,3.201581,0.1720510,0.28854356,163.2692,01/16.0/2024,2000,g 15.0,4.0
# From MPEC 2023-R20
C/2016 Q2 (PANSTARRS),h,05/12.3645/2021,109.3630,322.3294,84.5546,1.003262,7.081157,2000,6.0,4.0
# From MPEC 2022-K19
